NORAD_CAT_ID,OBJECT_NAME,OBJECT_TYPE,EPOCH,MEAN_MOTION,ECCENTRICITY,INCLINATION,RA_OF_ASC_NODE,ARG_OF_PERICENTER,MEAN_ANOMALY,BSTAR,MEAN_MOTION_DOT,MEAN_MOTION_DDOT,TLE_LINE0,TLE_LINE1,TLE_LINE2,SEMIMAJOR_AXIS,PERIOD,APOGEE,PERIGEE,DECAYED
52627.0,STARLINK-3992,PAYLOAD,2023-03-26 04:49:40,15.08835482,0.0001248,53.2166,75.1324,102.1322,257.981,-2.0623e-05,-6.16e-06,0.0,0 STARLINK-3992,1 52627U 22052AF  23085.20116000 -.00000616  00000-0 -20623-4 0  9993,2 52627  53.2166  75.1324 0001248 102.1322 257.9810 15.08835482 48407,6917.894,95.438,540.623,538.896,0.0
52627.0,STARLINK-3992,PAYLOAD,2023-03-26 15:57:22,15.08834132,0.0001185,53.2168,73.0517,106.7016,253.4106,3.2318e-05,2.26e-06,0.0,0 STARLINK-3992,1 52627U 22052AF  23085.66484198  .00000226  00000-0  32318-4 0  9998,2 52627  53.2168  73.0517 0001185 106.7016 253.4106 15.08834132 48107,6917.898,95.438,540.583,538.944,0.0
52627.0,STARLINK-3992,PAYLOAD,2023-03-27 07:51:13,15.0884185,0.0001064,53.2176,70.079,106.4753,253.6356,0.00020002,2.897e-05,0.0,0 STARLINK-3992,1 52627U 22052AF  23086.32723805  .00002897  00000-0  20002-3 0  9995,2 52627  53.2176  70.0790 0001064 106.4753 253.6356 15.08841850 48572,6917.875,95.437,540.476,539.004,0.0
52627.0,STARLINK-3992,PAYLOAD,2023-03-27 15:48:09,15.08836008,0.0001243,53.2173,68.5907,96.5131,263.6003,0.00011862,1.6e-05,0.0,0 STARLINK-3992,1 52627U 22052AF  23086.65844478  .00001600  00000-0  11862-3 0  9996,2 52627  53.2173  68.5907 0001243  96.5131 263.6003 15.08836008 48624,6917.893,95.438,540.617,538.898,0.0
52627.0,STARLINK-3992,PAYLOAD,2023-03-28 07:42:00,15.08843145,0.0001196,53.2175,65.6143,91.0883,269.0246,0.00014538,2.027e-05,0.0,0 STARLINK-3992,1 52627U 22052AF  23087.32084105  .00002027  00000-0  14538-3 0  9991,2 52627  53.2175  65.6143 0001196  91.0883 269.0246 15.08843145 48356,6917.871,95.437,540.563,538.908,0.0
52627.0,STARLINK-3992,PAYLOAD,2023-03-28 15:38:56,15.08844403,0.0001208,53.2176,64.1264,81.5291,278.5838,1.8361e-05,4e-08,0.0,0 STARLINK-3992,1 52627U 22052AF  23087.65204259  .00000004  00000-0  18361-4 0  9993,2 52627  53.2176  64.1264 0001208  81.5291 278.5838 15.08844403 48402,6917.867,95.437,540.568,538.896,0.0
52627.0,STARLINK-3992,PAYLOAD,2023-03-29 07:32:47,15.08851172,0.0001183,53.2178,61.1533,87.026,273.0867,7.0845e-05,8.4e-06,0.0,0 STARLINK-3992,1 52627U 22052AF  23088.31443795  .00000840  00000-0  70845-4 0  9990,2 52627  53.2178  61.1533 0001183  87.0260 273.0867 15.08851172 48873,6917.846,95.437,540.53,538.893,0.0
52627.0,STARLINK-3992,PAYLOAD,2023-03-29 15:29:43,15.08845865,0.0001044,53.2182,59.6689,89.0513,271.0599,1.6063e-05,-3.2e-07,0.0,0 STARLINK-3992,1 52627U 22052AF  23088.64564134 -.00000032  00000-0  16063-4 0  9993,2 52627  53.2182  59.6689 0001044  89.0513 271.0599 15.08845865 48929,6917.862,95.437,540.45,539.005,0.0
52627.0,STARLINK-3992,PAYLOAD,2023-03-30 02:37:26,15.08836025,0.0001203,53.2189,57.5871,91.3001,268.8129,4.0448e-05,3.56e-06,0.0,0 STARLINK-3992,1 52627U 22052AF  23089.10932896  .00000356  00000-0  40448-4 0  9991,2 52627  53.2189  57.5871 0001203  91.3001 268.8129 15.08836025 48999,6917.893,95.438,540.59,538.925,0.0
52627.0,STARLINK-3992,PAYLOAD,2023-03-30 07:23:35,15.08843901,0.0001271,53.2175,56.6929,93.8892,266.2246,1.1205e-05,-1.1e-06,0.0,0 STARLINK-3992,1 52627U 22052AF  23089.30804461 -.00000110  00000-0  11205-4 0  9997,2 52627  53.2175  56.6929 0001271  93.8892 266.2246 15.08843901 49026,6917.868,95.437,540.613,538.854,0.0
52627.0,STARLINK-3992,PAYLOAD,2023-04-01 02:19:00,15.08831905,0.0001435,53.2172,48.6642,107.5135,252.6014,1.813e-05,1e-08,0.0,0 STARLINK-3992,1 52627U 22052AF  23091.09653078  .00000001  00000-0  18130-4 0  9994,2 52627  53.2172  48.6642 0001435 107.5135 252.6014 15.08831905 49293,6917.905,95.438,540.763,538.777,0.0
52627.0,STARLINK-3992,PAYLOAD,2023-04-01 07:05:09,15.08836939,0.0001303,53.2177,47.7712,104.2028,255.9109,2.8603e-05,1.67e-06,0.0,0 STARLINK-3992,1 52627U 22052AF  23091.29524895  .00000167  00000-0  28603-4 0  9999,2 52627  53.2177  47.7712 0001303 104.2028 255.9109 15.08836939 48950,6917.89,95.438,540.656,538.853,0.0
52627.0,STARLINK-3992,PAYLOAD,2023-04-02 03:45:10,15.08845668,0.0001124,53.2158,43.9083,90.7187,269.3934,4.5346e-05,4.34e-06,0.0,0 STARLINK-3992,1 52627U 22052AF  23092.15636716  .00000434  00000-0  45346-4 0  9991,2 52627  53.2158  43.9083 0001124  90.7187 269.3934 15.08845668 49454,6917.863,95.437,540.506,538.95,0.0
52627.0,STARLINK-3992,PAYLOAD,2023-04-02 05:20:33,15.08848642,0.0001159,53.2165,43.6104,89.1309,270.9816,9.0847e-05,1.159e-05,0.0,0 STARLINK-3992,1 52627U 22052AF  23092.22260484  .00001159  00000-0  90847-4 0  9995,2 52627  53.2165  43.6104 0001159  89.1309 270.9816 15.08848642 49091,6917.854,95.437,540.521,538.917,0.0
52627.0,STARLINK-3992,PAYLOAD,2023-04-03 03:35:57,15.08839128,0.0001315,53.2184,39.4504,81.4945,278.6196,0.00021098,3.071e-05,0.0,0 STARLINK-3992,1 52627U 22052AF  23093.14997469  .00003071  00000-0  21098-3 0  9993,2 52627  53.2184  39.4504 0001315  81.4945 278.6196 15.08839128 49606,6917.883,95.438,540.658,538.838,0.0
52627.0,STARLINK-3992,PAYLOAD,2023-04-03 06:46:43,15.08842162,0.0001325,53.2182,38.8535,84.1173,275.997,0.00023756,3.495e-05,0.0,0 STARLINK-3992,1 52627U 22052AF  23093.28245314  .00003495  00000-0  23756-3 0  9996,2 52627  53.2182  38.8535 0001325  84.1173 275.9970 15.08842162 49258,6917.874,95.437,540.655,538.822,0.0
52627.0,STARLINK-3992,PAYLOAD,2023-04-04 06:37:30,15.08858848,0.0001435,53.2176,34.3913,88.9805,271.1352,0.0003442,5.197e-05,0.0,0 STARLINK-3992,1 52627U 22052AF  23094.27604388  .00005197  00000-0  34420-3 0  9997,2 52627  53.2176  34.3913 0001435  88.9805 271.1352 15.08858848 49775,6917.823,95.436,540.68,538.695,0.0
52627.0,STARLINK-3992,PAYLOAD,2023-04-04 19:20:35,15.08845725,0.0002004,53.2173,32.013,89.9747,270.1475,3.7479e-05,3.08e-06,0.0,0 STARLINK-3992,1 52627U 22052AF  23094.80596968  .00000308  00000-0  37479-4 0  9997,2 52627  53.2173  32.0130 0002004  89.9747 270.1475 15.08845725 49480,6917.863,95.437,541.114,538.342,0.0
52627.0,STARLINK-3992,PAYLOAD,2023-04-05 01:42:08,15.08840254,0.0001402,53.218,30.8235,106.0962,254.0184,-4.7809e-05,-1.049e-05,0.0,0 STARLINK-3992,1 52627U 22052AF  23095.07093003 -.00001049  00000-0 -47809-4 0  9992,2 52627  53.2180  30.8235 0001402 106.0962 254.0184 15.08840254 49896,6917.88,95.438,540.714,538.775,0.0
52627.0,STARLINK-3992,PAYLOAD,2023-04-05 04:52:54,15.08843701,0.0001376,53.2168,30.2253,117.2325,242.8807,4.6932e-05,4.59e-06,0.0,0 STARLINK-3992,1 52627U 22052AF  23095.20340713  .00000459  00000-0  46932-4 0  9998,2 52627  53.2168  30.2253 0001376 117.2325 242.8807 15.08843701 49542,6917.869,95.437,540.686,538.782,0.0
52627.0,STARLINK-3992,PAYLOAD,2023-04-06 01:32:54,15.08885831,0.0001233,53.2176,26.3623,110.8193,249.2931,0.00091394,0.00014305,0.0,0 STARLINK-3992,1 52627U 22052AF  23096.06451593  .00014305  00000-0  91394-3 0  9998,2 52627  53.2176  26.3623 0001233 110.8193 249.2931 15.08885831 50048,6917.74,95.435,540.458,538.752,0.0
52627.0,STARLINK-3992,PAYLOAD,2023-04-06 04:43:40,15.0889177,0.0001181,53.2176,25.7675,109.525,250.587,0.0010018,0.00015714,0.0,0 STARLINK-3992,1 52627U 22052AF  23096.19699132  .00015714  00000-0  10018-2 0  9993,2 52627  53.2176  25.7675 0001181 109.5250 250.5870 15.08891770 49694,6917.722,95.434,540.404,538.77,0.0
52627.0,STARLINK-3992,PAYLOAD,2023-04-06 19:02:09,15.08839839,0.0001596,53.2183,23.0925,89.5626,270.5549,4.5752e-05,4.4e-06,0.0,0 STARLINK-3992,1 52627U 22052AF  23096.79316834  .00000440  00000-0  45752-4 0  9999,2 52627  53.2183  23.0925 0001596  89.5626 270.5549 15.08839839 50151,6917.881,95.438,540.85,538.642,0.0
52627.0,STARLINK-3992,PAYLOAD,2023-04-07 01:23:42,15.08830333,0.0001055,53.2182,21.9028,76.4084,283.7025,-0.00013717,-2.47e-05,0.0,0 STARLINK-3992,1 52627U 22052AF  23097.05813208 -.00002470  00000-0 -13717-3 0  9998,2 52627  53.2182  21.9028 0001055  76.4084 283.7025 15.08830333 50193,6917.91,95.438,540.505,539.045,0.0
52627.0,STARLINK-3992,PAYLOAD,2023-04-07 04:34:28,15.08834004,0.0001193,53.2181,21.3071,83.2471,276.8657,-5.7646e-05,-1.205e-05,0.0,0 STARLINK-3992,1 52627U 22052AF  23097.19061147 -.00001205  00000-0 -57646-4 0  9995,2 52627  53.2181  21.3071 0001193  83.2471 276.8657 15.08834004 49846,6917.899,95.438,540.589,538.938,0.0
52627.0,STARLINK-3992,PAYLOAD,2023-04-08 01:14:29,15.08848249,0.0001141,53.2184,17.4413,79.5822,280.5298,0.00028146,4.195e-05,0.0,0 STARLINK-3992,1 52627U 22052AF  23098.05172900  .00004195  00000-0  28146-3 0  9992,2 52627  53.2184  17.4413 0001141  79.5822 280.5298 15.08848249 50342,6917.855,95.437,540.51,538.931,0.0
52627.0,STARLINK-3992,PAYLOAD,2023-04-08 04:25:15,15.0884825,0.0001181,53.2183,16.8468,76.931,283.1813,0.00072814,0.00011322,0.0,0 STARLINK-3992,1 52627U 22052AF  23098.18421172  .00011322  00000-0  72814-3 0  9995,2 52627  53.2183  16.8468 0001181  76.9310 283.1813 15.08848250 49994,6917.855,95.437,540.537,538.903,0.0
52627.0,STARLINK-3992,PAYLOAD,2023-04-08 18:43:44,15.08844852,0.0001205,53.2187,14.1705,85.2959,274.817,0.00036162,5.473e-05,0.0,0 STARLINK-3992,1 52627U 22052AF  23098.78037345  .00005473  00000-0  36162-3 0  9992,2 52627  53.2187  14.1705 0001205  85.2959 274.8170 15.08844852 50452,6917.866,95.437,540.564,538.897,0.0
52627.0,STARLINK-3992,PAYLOAD,2023-04-09 04:16:02,15.08852363,0.0001149,53.2186,12.3873,83.2609,276.8514,0.00063067,9.767e-05,0.0,0 STARLINK-3992,1 52627U 22052AF  23099.17781137  .00009767  00000-0  63067-3 0  9995,2 52627  53.2186  12.3873 0001149  83.2609 276.8514 15.08852363 50140,6917.843,95.437,540.502,538.913,0.0
52627.0,STARLINK-3992,PAYLOAD,2023-04-10 02:31:27,15.08847469,0.0001063,53.2174,8.2247,92.8148,267.2966,0.00087485,0.00013666,0.0,0 STARLINK-3992,1 52627U 22052AF  23100.10517612  .00013666  00000-0  87485-3 0  9999,2 52627  53.2174   8.2247 0001063  92.8148 267.2966 15.08847469 50657,6917.858,95.437,540.458,538.987,0.0
